ION SCV-004             
1 50993U 22002K   26068.68892644  .00006538  00000+0  23198-3 0  9998
2 50993  97.2961 128.2294 0007216   1.6783 358.4480 15.29369331230088
STARLINK-33731          
1 63475U 25070R   26068.83240881  .00025273  00000+0  92515-3 0  9998
2 63475  43.0010 259.3917 0001678 276.4294  83.6366 15.27565870 52990
